[{"OBJECT_NAME":"CS1","OBJECT_ID":"2021-088B","EPOCH":"2026-03-09T18:02:30.253920","MEAN_MOTION":15.31848439,"ECCENTRICITY":0.00141292,"INCLINATION":97.3882,"RA_OF_ASC_NODE":132.1684,"ARG_OF_PERICENTER":78.0335,"MEAN_ANOMALY":282.249,"EPHEMERIS_TYPE":0,"CLASSIFICATION_TYPE":"U","NORAD_CAT_ID":49261,"ELEMENT_SET_NO":999,"REV_AT_EPOCH":24518,"BSTAR":0.00051175576,"MEAN_MOTION_DOT":0.00015722,"MEAN_MOTION_DDOT":0},{"OBJECT_NAME":"STARLINK-31401","OBJECT_ID":"2024-064V","EPOCH":"2026-03-09T06:49:25.049280","MEAN_MOTION":15.27579016,"ECCENTRICITY":0.00014139,"INCLINATION":43.0046,"RA_OF_ASC_NODE":51.5445,"ARG_OF_PERICENTER":251.7508,"MEAN_ANOMALY":108.319,"EPHEMERIS_TYPE":0,"CLASSIFICATION_TYPE":"U","NORAD_CAT_ID":59417,"ELEMENT_SET_NO":999,"REV_AT_EPOCH":10899,"BSTAR":-2.5367148e-5,"MEAN_MOTION_DOT":-9.6e-6,"MEAN_MOTION_DDOT":0}]
